{
  "norad_id": 47533,
  "name": "YAOGAN-31 02B",
  "history": [
    {
      "epoch": "2026-03-28T22:08:19.223808Z",
      "apogee_km": 1215.7051980311926,
      "perigee_km": 962.4504260406984,
      "latitude_deg": -3.9928872727535186e-05,
      "longitude_deg": -170.01645802430005,
      "height_km": 964.2062097812102,
      "semi_major_axis_km": 7467.214812035945,
      "eccentricity": 0.01695778,
      "inclination_deg": 63.4064,
      "raan_deg": 348.3996,
      "arg_perigee_deg": 0.3804,
      "mean_anomaly_deg": 359.7321,
      "mean_motion_rev_day": 13.45441423
    },
    {
      "epoch": "2026-03-29T03:29:24.249984Z",
      "apogee_km": 1215.7069102445612,
      "perigee_km": 962.4473818248189,
      "latitude_deg": 4.888569567840552e-05,
      "longitude_deg": 108.9198698185587,
      "height_km": 964.2032246357938,
      "semi_major_axis_km": 7467.214146034689,
      "eccentricity": 0.0169581,
      "inclination_deg": 63.4065,
      "raan_deg": 347.8266,
      "arg_perigee_deg": 0.3865,
      "mean_anomaly_deg": 359.7263,
      "mean_motion_rev_day": 13.45441603
    },
    {
      "epoch": "2026-03-30T04:27:47.788992Z",
      "apogee_km": 1215.7467193940065,
      "perigee_km": 962.4050936714884,
      "latitude_deg": 4.126166056834386e-05,
      "longitude_deg": 90.62257437353982,
      "height_km": 964.1610408353123,
      "semi_major_axis_km": 7467.212906532747,
      "eccentricity": 0.0169636,
      "inclination_deg": 63.4066,
      "raan_deg": 345.153,
      "arg_perigee_deg": 0.3956,
      "mean_anomaly_deg": 359.7175,
      "mean_motion_rev_day": 13.45441938
    },
    {
      "epoch": "2026-03-30T06:14:49.462944Z",
      "apogee_km": 1215.752321816456,
      "perigee_km": 962.399054648462,
      "latitude_deg": 7.073974380585008e-06,
      "longitude_deg": 63.60122464000889,
      "height_km": 964.154977661159,
      "semi_major_axis_km": 7467.212688232458,
      "eccentricity": 0.01696438,
      "inclination_deg": 63.4065,
      "raan_deg": 344.9619,
      "arg_perigee_deg": 0.3937,
      "mean_anomaly_deg": 359.7193,
      "mean_motion_rev_day": 13.45441997
    },
    {
      "epoch": "2026-03-30T15:09:57.868128Z",
      "apogee_km": 1215.7734494205188,
      "perigee_km": 962.3786522453775,
      "latitude_deg": -7.602991953987144e-06,
      "longitude_deg": -71.5047942132419,
      "height_km": 964.1346292247086,
      "semi_major_axis_km": 7467.213050832947,
      "eccentricity": 0.01696716,
      "inclination_deg": 63.4067,
      "raan_deg": 344.0072,
      "arg_perigee_deg": 0.3971,
      "mean_anomaly_deg": 359.716,
      "mean_motion_rev_day": 13.45441899
    },
    {
      "epoch": "2026-03-30T22:18:04.631328Z",
      "apogee_km": 1215.7988304830933,
      "perigee_km": 962.3551655857673,
      "latitude_deg": -4.130931766849153e-06,
      "longitude_deg": -179.59000488494277,
      "height_km": 964.1111962599341,
      "semi_major_axis_km": 7467.21399803443,
      "eccentricity": 0.01697043,
      "inclination_deg": 63.4066,
      "raan_deg": 343.2432,
      "arg_perigee_deg": 0.4029,
      "mean_anomaly_deg": 359.7104,
      "mean_motion_rev_day": 13.45441643
    },
    {
      "epoch": "2026-03-31T21:29:26.429856Z",
      "apogee_km": 1215.8546624542396,
      "perigee_km": 962.2935616074537,
      "latitude_deg": 4.3787971592869384e-05,
      "longitude_deg": -170.86576122673722,
      "height_km": 964.0495972391171,
      "semi_major_axis_km": 7467.211112030846,
      "eccentricity": 0.0169783,
      "inclination_deg": 63.4066,
      "raan_deg": 340.7606,
      "arg_perigee_deg": 0.4042,
      "mean_anomaly_deg": 359.7092,
      "mean_motion_rev_day": 13.45442423
    },
    {
      "epoch": "2026-04-01T20:40:48.263808Z",
      "apogee_km": 1215.9204491691298,
      "perigee_km": 962.2279228926791,
      "latitude_deg": 4.888263839552182e-05,
      "longitude_deg": -162.14188702879383,
      "height_km": 963.9840782168535,
      "semi_major_axis_km": 7467.211186030904,
      "eccentricity": 0.0169871,
      "inclination_deg": 63.4065,
      "raan_deg": 338.2778,
      "arg_perigee_deg": 0.4158,
      "mean_anomaly_deg": 359.698,
      "mean_motion_rev_day": 13.45442403
    },
    {
      "epoch": "2026-04-02T21:39:11.791584Z",
      "apogee_km": 1215.998296736845,
      "perigee_km": 962.1533831284696,
      "latitude_deg": -3.885439754996895e-05,
      "longitude_deg": 179.5606247088711,
      "height_km": 963.9095875975994,
      "semi_major_axis_km": 7467.212839932657,
      "eccentricity": 0.0169973,
      "inclination_deg": 63.4062,
      "raan_deg": 335.604,
      "arg_perigee_deg": 0.4214,
      "mean_anomaly_deg": 359.6925,
      "mean_motion_rev_day": 13.45441956
    },
    {
      "epoch": "2026-04-02T23:26:13.482816Z",
      "apogee_km": 1216.0157058898312,
      "perigee_km": 962.1386379796395,
      "latitude_deg": -2.7754016300459486e-05,
      "longitude_deg": 152.53922529792473,
      "height_km": 963.8948430428923,
      "semi_major_axis_km": 7467.2141719347355,
      "eccentricity": 0.01699945,
      "inclination_deg": 63.4063,
      "raan_deg": 335.4129,
      "arg_perigee_deg": 0.421,
      "mean_anomaly_deg": 359.6929,
      "mean_motion_rev_day": 13.45441596
    },
    {
      "epoch": "2026-04-03T20:50:33.592704Z",
      "apogee_km": 1216.068111804194,
      "perigee_km": 962.0798902573342,
      "latitude_deg": 2.0134630694514417e-07,
      "longitude_deg": -171.715548211931,
      "height_km": 963.8361591964251,
      "semi_major_axis_km": 7467.211001030764,
      "eccentricity": 0.0170069,
      "inclination_deg": 63.406,
      "raan_deg": 333.121,
      "arg_perigee_deg": 0.4289,
      "mean_anomaly_deg": 359.6853,
      "mean_motion_rev_day": 13.45442453
    }
  ]
}